STARLINK-31640          
1 59748U 24090U   26068.32392241 -.00001083  00000+0 -29843-4 0  9999
2 59748  42.9976 185.5973 0001859 191.7433 168.3375 15.27571730103387
YAOGAN-43 01D           
1 60461U 24148D   26068.43560480  .00010676  00000+0  37766-3 0  9999
2 60461  35.0010  61.7102 0002556 326.2473  33.8080 15.28369377 87008
